spkid,a,e,i,om,w,ma,epoch,diameter,spec_B
2000001,2.769165149,0.076009027,10.5940672,80.3055309,73.5976947,77.37209752,2458600.5,939.4,C
2000005,2.57403728,0.190913344,5.367427136,141.5710265,358.648418,17.84634261,2459000.5,106.699,S
2000006,2.424532679,0.203218827,14.73965325,138.6434317,239.7362735,190.6864961,2459000.5,185.18,S
2000007,2.387375341,0.230145044,5.521598101,259.5639415,145.2015458,247.4258117,2459000.5,199.83,S
2000010,3.142435384,0.11211732,3.831786066,283.1984443,312.4129317,222.8505434,2459000.5,407.12,C
2000014,2.586377164,0.166249875,9.121448018,86.12399134,97.80167193,259.7957123,2459000.5,152,S
2000015,2.643689742,0.186177698,11.75361935,292.9347981,98.59525006,15.02560935,2459000.5,231.689,S
2000016,2.922775574,0.133531208,3.096559879,150.0406823,229.0268171,7.048521059,2459000.5,226,X
2000018,2.295708701,0.217505332,10.13158957,150.3651823,228.0776863,20.4621022,2459000.5,139.594,S
2000020,2.409358167,0.142493783,0.708566914,206.0132179,257.3509375,222.4603219,2459000.5,135.68,S
2000022,2.910347528,0.098049766,13.70173622,66.0046455,357.2564762,274.6358419,2459000.5,167.536,X
2000023,2.625114956,0.234751726,10.11400359,66.84479952,60.63247371,68.51282982,2459000.5,107.53,S
2000025,2.399561513,0.254895612,21.60666665,214.1202789,90.30961935,278.8823407,2459000.5,61.054,S
2000026,2.655210373,0.089828319,3.562758698,45.77913563,193.5713965,196.7396739,2459000.5,94.8,S
2000027,2.346231774,0.173130991,1.583696605,94.78724747,356.3779246,85.06235425,2459000.5,96,S
2000028,2.776153052,0.151782123,9.429957177,144.2869369,344.0095155,358.7646027,2459000.5,120.9,S
2000029,2.554818381,0.072959119,6.081867523,356.3358682,63.27357027,20.89746563,2459000.5,189.559,S
2000032,2.587221171,0.081634436,5.52163372,220.386723,339.0706078,127.0513077,2459000.5,80.76,S
2000035,2.994191155,0.225308204,7.932409877,353.7187615,213.4265346,291.3024208,2459000.5,103.055,C
2000037,2.642047372,0.175645297,3.070926852,7.258074506,62.77226728,73.39732612,2459000.5,108.35,S
2000039,2.768872125,0.111456916,10.37000922,156.9480144,209.306278,26.96827476,2459000.5,179.484,S
2000040,2.266890393,0.047191653,4.257392093,94.18885908,269.4974413,223.2722019,2459000.5,111.251,S
2000045,2.719269795,0.084164524,6.605580796,147.6001813,87.79616653,126.6509964,2459000.5,202.327,C
2000052,3.094249387,0.110441969,7.478465253,128.6006928,343.366455,309.8657103,2459000.5,303.918,C
2000054,2.71102796,0.197302577,11.79820859,313.2467643,345.05048,106.624266,2459000.5,160.12,C
2000055,2.760437589,0.143246422,7.17940419,10.36964233,5.385958668,86.99154515,2459000.5,84.794,X
2000057,3.154342096,0.112387184,15.20416551,199.1679347,210.6403998,213.7129666,2459000.5,112.59,S
2000060,2.392111751,0.184845741,3.600511108,191.5465315,271.2181068,314.9727984,2459000.5,43.218,S
2000061,2.984005917,0.165023135,18.20999759,333.5718493,12.47044352,348.6174389,2459000.5,85.937,S
2000067,2.421378228,0.185148302,6.02890713,202.4112748,106.8904766,23.27042699,2459000.5,56.309,S
2000069,2.976822652,0.170260304,8.590967393,184.9850105,289.1127747,17.89713811,2459000.5,138.13,X
2000074,2.780263374,0.235849289,4.070703508,197.1434013,174.53822,359.6915811,2459000.5,118.71,C
2000076,3.414264879,0.166010853,2.121333842,204.3009575,252.2670098,346.7613476,2459000.5,145.423,X
2000079,2.444635923,0.189957924,4.61251268,206.5336156,201.5110126,331.5056009,2459000.5,63.479,S
2000080,2.295291517,0.200313448,8.676073494,218.6882237,139.6195216,210.6623847,2459000.5,68.563,S
2000083,2.431964225,0.081298689,4.963774681,27.72641336,168.5949555,333.5711095,2459000.5,110.503,X
2000087,3.482070736,0.093403616,10.87598592,73.04063802,263.5897265,153.4227032,2459000.5,253.051,X
2000090,3.14872561,0.166499514,2.206751713,69.96053962,244.9419894,215.635544,2459000.5,115.974,C
2000093,2.756376884,0.139066233,8.556424092,4.030975592,274.9405843,203.1480034,2459000.5,154.155,C
2000094,3.157818068,0.094273487,7.969380915,2.56535219,60.34317399,19.26394513,2459000.5,204.89,C
2000100,3.089431762,0.169555288,6.431994763,127.1816265,184.3863362,319.3062924,2459000.5,85.734,S
2000101,2.58307759,0.140584456,10.19686014,343.3825181,348.3691219,208.2023467,2459000.5,65.84,S
2000102,2.662333499,0.25110586,5.172851984,210.7978714,147.0245829,341.9682114,2459000.5,82.595,C
2000103,2.702140974,0.079236123,5.418345972,136.079743,188.6794967,83.70336252,2459000.5,83.908,S
2000107,3.49059289,0.065108845,10.0014532,172.5826385,306.397008,27.12007451,2459000.5,210.37,X
2000110,2.733551158,0.081363268,5.962488936,56.86235061,282.5433181,294.8461639,2459000.5,86.09,X
2000113,2.376287876,0.086616809,5.042979091,123.4466582,78.68011431,243.6948707,2459000.5,50.137,S
2000115,2.379083263,0.193192755,11.59420606,308.79612,97.06412515,124.2271711,2459000.5,79.83,S
2000117,2.992997487,0.026769669,14.89920757,348.737096,50.3619326,226.3618939,2459000.5,208.974,X
2000118,2.436901367,0.164625617,7.745332234,47.67843565,33.32877076,53.87046684,2459000.5,40.211,S
2000120,3.118620485,0.052021975,6.963090724,341.1625579,233.9639789,305.5434845,2459000.5,155.132,C
2000123,2.695223627,0.120620359,6.414358259,307.7251494,125.6747998,49.0521924,2459000.5,45.209,S
2000124,2.629926725,0.075516141,2.957464122,187.9747834,62.15469377,306.4612723,2459000.5,88.648,S
2000125,2.743653518,0.077941812,4.664196804,168.9812294,110.0107019,250.8239056,2459000.5,48.418,X
2000128,2.748942608,0.127675206,6.245306452,76.23770453,303.6201527,158.5974897,2459000.5,162.515,C
2000129,2.87035858,0.212593821,12.26692888,135.6670026,111.2466526,21.0557946,2459000.5,113,X
2000133,3.06463429,0.135228451,7.21360214,319.0050434,290.1309255,213.0547859,2459000.5,72.175,S
2000139,2.781680954,0.174553974,10.90937395,1.817387934,165.6082666,357.6701106,2459000.5,151.116,X
2000147,3.135853558,0.023683953,1.93326314,248.2655725,100.5354131,341.2733042,2459000.5,132.93,C
2000148,2.77152632,0.187225391,25.29192479,145.0008441,252.7195672,89.54911029,2459000.5,97.75,S
2000152,3.137731361,0.080976206,12.12400981,39.8997362,59.20472377,301.1638184,2459000.5,58.964,S
2000153,3.979001314,0.140283377,7.824732846,228.131892,39.05005486,224.9811884,2459000.5,170.63,X
2000154,3.195094075,0.076735492,20.97364378,36.72606344,160.4968295,5.655291861,2459000.5,192.611,C
2000158,2.86779122,0.052075146,1.005670747,277.7032749,146.4082096,295.2741264,2459000.5,39.025,S
2000160,2.727277346,0.067037827,3.824128437,8.586249589,52.13551838,91.55738106,2459000.5,81.24,C
2000164,2.631445926,0.34679237,24.47377875,76.81450179,284.0296546,182.5899794,2459000.5,100.254,X
2000170,2.553287575,0.063495466,14.37880499,301.2966475,158.2681804,67.20213577,2459000.5,33.136,S
2000171,3.130117391,0.132047393,2.546747048,100.4767613,55.98165179,261.2654578,2459000.5,130.808,C
2000174,2.861916562,0.141161426,12.12324734,327.6570344,289.5067494,255.2908072,2459000.5,64.849,S
2000178,2.459928702,0.042889554,1.893683301,51.09282917,211.3572265,118.5166705,2459000.5,35.81,S
2000182,2.416075104,0.186482219,2.005421638,107.1839277,310.8437332,27.09470483,2459000.5,39.52,S
2000183,2.79268109,0.349769155,26.38815576,141.9040508,264.0825537,230.8424327,2459000.5,32.927,S
2000184,3.186591877,0.065930397,1.14331972,331.561873,210.3939798,0.914984352,2459000.5,62.483,X
2000185,2.739787276,0.128442895,23.23850035,153.7831716,223.4859815,272.6385173,2459000.5,160.464,C
2000188,2.760638774,0.179397179,11.70492498,240.8944598,70.17071917,287.3670484,2459000.5,35.752,S
2000190,3.986862472,0.166707925,6.176684539,175.4558563,271.1249641,308.8280924,2459000.5,159,X
2000194,2.615586921,0.238044468,18.51108696,159.2675466,162.9949842,8.815509057,2459000.5,161.667,C
2000196,3.114626367,0.015724069,7.262362347,72.32446698,201.1711813,162.1308994,2459000.5,144.626,S
2000197,2.74009534,0.164435958,8.79328442,81.60587701,245.9375043,325.3898839,2459000.5,31.729,S
2000198,2.459257379,0.227136069,9.320996725,268.2593242,89.14691662,128.3155328,2459000.5,54.323,S
2000199,3.165432367,0.18054187,15.48087676,88.58171872,180.3554145,331.3054959,2459000.5,76.129,X
2000201,2.678166941,0.179237272,5.755872364,156.925266,180.7167833,34.34804669,2459000.5,85.877,X
2000206,2.739824262,0.038688355,3.779710735,145.0447153,302.9950153,289.7780975,2459000.5,113,C
2000226,2.71175086,0.204127701,15.97033243,134.9509824,154.1849643,323.7146426,2459000.5,31.494,S
2000228,2.201365941,0.241805748,2.536734751,313.2995742,19.02575738,61.7402911,2459000.5,9.3,S
2000237,2.763688829,0.071096055,9.74740395,84.24528492,200.0895983,192.8220669,2459000.5,41.08,S
2000240,2.664311209,0.207808837,2.105548607,115.0679673,300.9969463,16.70553426,2459000.5,87.928,C
2000243,2.86083847,0.043267735,1.130237426,323.6310807,114.0946605,320.8397578,2459000.5,32,S
2000245,3.096638088,0.196674446,5.178678983,61.06696033,331.5930079,11.51387752,2459000.5,75.949,S
2000258,2.615525377,0.204352753,14.32165004,207.552007,155.6104658,123.3256597,2459000.5,64.78,S
2000259,3.136485513,0.129952875,10.81386047,86.84567201,167.7410334,31.32227627,2459000.5,174.318,X
2000261,2.331614313,0.088704615,3.635932931,96.63003008,65.89685451,63.33967731,2459000.5,50.011,X
2000263,2.887140514,0.077856711,1.320276255,216.1611682,162.6676443,99.64024929,2459000.5,23.952,S
2000264,2.796299736,0.137192938,10.42563426,49.59539241,340.4786267,190.2711845,2459000.5,62.969,S
2000272,2.776974315,0.028145753,4.432579146,37.31718498,69.10159726,240.8571252,2459000.5,26.87,X
2000275,2.770432443,0.163671273,4.764003113,134.0449059,39.63094342,240.6568534,2459000.5,103,C
2000278,2.755516879,0.131552685,7.817049483,61.99442164,139.8181109,346.0971949,2459000.5,32.773,S
2000279,4.272880797,0.042519756,2.334382766,71.92000131,24.48354088,235.0558011,2459000.5,126.59,X
2000281,2.188326504,0.13212887,5.302023171,31.39514836,16.53612877,228.5942817,2459000.5,11.036,S
2000288,2.759536926,0.205756105,4.338300034,120.1036944,84.71138726,117.0974677,2459000.5,28.981,S
2000295,2.79737885,0.170221706,2.708384095,276.0345795,147.949553,202.091226,2459000.5,28.34,S
